{
  "type": "FeatureCollection",
  "features": [
    {"type":"Feature","geometry":{"type":"Point","coordinates":[121.67518599999995,25.165399999999988]},"properties":{"plant":"中幅淨水場","county":"新北市","source":"Environment Agency","address":"中幅里132號前10公尺 (中幅場門前)；中福路132號","township":"萬里區","data_time":"2026-05-02T13:20:13.038157+08:00","item_count":32,"record_count":32,"measured_count":16}},
    {"type":"Feature","geometry":{"type":"Point","coordinates":[121.5661857,25.038309900000023]},"properties":{"plant":"二坪淨水場","county":"新北市","source":"Environment Agency","address":"中福路132號；崁腳里(安安土雞城斜對面)","township":"萬里區","data_time":"2026-05-02T13:20:13.038157+08:00","item_count":32,"record_count":32,"measured_count":11}},
    {"type":"Feature","geometry":{"type":"Point","coordinates":[121.5661857,25.038309900000023]},"properties":{"plant":"員山淨水場","county":"新北市","source":"Environment Agency","address":"員山子路19之1號；員山子路19號；明燈路三段78號","township":"瑞芳區","data_time":"2026-05-02T13:20:13.038157+08:00","item_count":32,"record_count":32,"measured_count":18}},
    {"type":"Feature","geometry":{"type":"Point","coordinates":[121.5661857,25.038309900000023]},"properties":{"plant":"坪林淨水場","county":"新北市","source":"Environment Agency","address":"國中路7號；國中路8號","township":"坪林區","data_time":"2026-05-02T13:20:13.038157+08:00","item_count":32,"record_count":32,"measured_count":15}},
    {"type":"Feature","geometry":{"type":"Point","coordinates":[121.612557583308,25.068652720688]},"properties":{"plant":"大湳淨水場","county":"新北市","source":"Environment Agency","address":"東湖路93巷10號","township":"林口區","data_time":"2026-05-02T13:20:13.038157+08:00","item_count":14,"record_count":14,"measured_count":9}},
    {"type":"Feature","geometry":{"type":"Point","coordinates":[121.54596200000006,25.12042399999999]},"properties":{"plant":"平溪淨水場","county":"新北市","source":"Environment Agency","address":"東勢格竿蓁林44號；東勢里芊蓁林44號","township":"平溪區","data_time":"2026-05-02T13:20:13.038157+08:00","item_count":32,"record_count":32,"measured_count":15}},
    {"type":"Feature","geometry":{"type":"Point","coordinates":[121.35648200000009,24.94031299999999]},"properties":{"plant":"板新淨水廠","county":"新北市","source":"Environment Agency","address":"中山路551號；復興路551號；復興路五五一號；泰林路二段47號","township":"三峽區、板橋區、泰山區","data_time":"2026-05-02T13:20:13.038157+08:00","item_count":50,"record_count":50,"measured_count":15}},
    {"type":"Feature","geometry":{"type":"Point","coordinates":[121.56050200000007,25.091670999999977]},"properties":{"plant":"樹興淨水場","county":"新北市","source":"Environment Agency","address":"水源街2段346巷5號；糞箕湖131巷1號","township":"淡水區","data_time":"2026-05-02T13:20:13.038157+08:00","item_count":60,"record_count":60,"measured_count":15}},
    {"type":"Feature","geometry":{"type":"Point","coordinates":[121.5661857,25.038309900000023]},"properties":{"plant":"湧泉(北投子)淨水場","county":"新北市","source":"Environment Agency","address":"水源街2段346巷5號","township":"淡水區","data_time":"2026-05-02T13:20:13.038157+08:00","item_count":32,"record_count":32,"measured_count":13}},
    {"type":"Feature","geometry":{"type":"Point","coordinates":[121.55257100000001,24.864725000000007]},"properties":{"plant":"烏來淨水場","county":"新北市","source":"Environment Agency","address":"烏來區烏來里23-6號","township":"烏來區","data_time":"2026-05-02T13:20:13.038157+08:00","item_count":24,"record_count":24,"measured_count":10}},
    {"type":"Feature","geometry":{"type":"Point","coordinates":[121.501941895649,25.018834942375985]},"properties":{"plant":"白雲淨水場","county":"新北市","source":"Environment Agency","address":"水源路二段289號","township":"汐止區","data_time":"2026-05-02T13:20:13.038157+08:00","item_count":30,"record_count":30,"measured_count":12}},
    {"type":"Feature","geometry":{"type":"Point","coordinates":[121.94666000000004,25.02006000000002]},"properties":{"plant":"石碇淨水場","county":"新北市","source":"Environment Agency","address":"雙溪口80-1號","township":"石碇區","data_time":"2026-05-02T13:20:13.038157+08:00","item_count":30,"record_count":30,"measured_count":15}},
    {"type":"Feature","geometry":{"type":"Point","coordinates":[121.55127200000005,25.25482299999999]},"properties":{"plant":"老梅淨水場","county":"新北市","source":"Environment Agency","address":"七股33-2號；中山路一段65號；石門區七股33-2號","township":"三芝區、石門區","data_time":"2026-05-02T13:20:13.038157+08:00","item_count":32,"record_count":32,"measured_count":19}},
    {"type":"Feature","geometry":{"type":"Point","coordinates":[121.60585440770096,25.055711104095007]},"properties":{"plant":"興華淨水場","county":"新北市","source":"Environment Agency","address":"興華街(101甲線) (櫻花山莊上)","township":"三芝區","data_time":"2026-05-02T13:20:13.038157+08:00","item_count":24,"record_count":24,"measured_count":11}},
    {"type":"Feature","geometry":{"type":"Point","coordinates":[121.68880900000006,25.179375000000004]},"properties":{"plant":"萬里淨水場","county":"新北市","source":"Environment Agency","address":"瑪鋉頂街56-2號；瑪鍊路54巷20號(萬金營運所)","township":"萬里區","data_time":"2026-05-02T13:20:13.038157+08:00","item_count":24,"record_count":24,"measured_count":14}},
    {"type":"Feature","geometry":{"type":"Point","coordinates":[121.92072199999994,25.01099199999999]},"properties":{"plant":"貢寮淨水場","county":"新北市","source":"Environment Agency","address":"下雙溪街20號；太平路5號","township":"貢寮區、雙溪區","data_time":"2026-05-02T13:20:13.038157+08:00","item_count":33,"record_count":33,"measured_count":17}},
    {"type":"Feature","geometry":{"type":"Point","coordinates":[121.49703349987796,25.038958236128014]},"properties":{"plant":"公館淨水場","county":"臺北市","source":"Environment Agency","address":"思源街1號；桂林路167巷14號","township":"中正區、萬華區","data_time":"2026-05-02T13:20:13.038157+08:00","item_count":47,"record_count":47,"measured_count":15}},
    {"type":"Feature","geometry":{"type":"Point","coordinates":[121.567742564514,25.06466699999999]},"properties":{"plant":"直潭淨水場","county":"臺北市","source":"Environment Agency","address":"八德路二段366巷21-2號對面；新店區直潭路2號；民權東路五段41-1號；直潭路127號","township":"北縣水廠、松山區","data_time":"2026-05-02T13:20:13.038157+08:00","item_count":33,"record_count":33,"measured_count":14}},
    {"type":"Feature","geometry":{"type":"Point","coordinates":[121.58411309196802,25.04258332543201]},"properties":{"plant":"長興淨水場","county":"臺北市","source":"Environment Agency","address":"中坡南路51號；研究院路二段1號；長興街131號","township":"南港區、大安區","data_time":"2026-05-02T13:20:13.038157+08:00","item_count":34,"record_count":34,"measured_count":15}},
    {"type":"Feature","geometry":{"type":"Point","coordinates":[121.54407089648,25.151395557984]},"properties":{"plant":"陽明淨水場-中正池","county":"臺北市","source":"Environment Agency","address":"湖山路一段17-2號旁","township":"北投區","data_time":"2026-05-02T13:20:13.038157+08:00","item_count":13,"record_count":13,"measured_count":5}},
    {"type":"Feature","geometry":{"type":"Point","coordinates":[121.56193544389905,25.15154234546002]},"properties":{"plant":"陽明淨水場-公館里菁山路101巷","county":"臺北市","source":"Environment Agency","address":"菁山路101巷79號","township":"士林區","data_time":"2026-05-02T13:20:13.038157+08:00","item_count":29,"record_count":29,"measured_count":13}},
    {"type":"Feature","geometry":{"type":"Point","coordinates":[121.53224453401393,25.151099592982984]},"properties":{"plant":"陽明淨水場-泉源場區","county":"臺北市","source":"Environment Agency","address":"格致路198號；泉源路260號","township":"北投區、士林區","data_time":"2026-05-02T13:20:13.038157+08:00","item_count":32,"record_count":32,"measured_count":14}},
    {"type":"Feature","geometry":{"type":"Point","coordinates":[121.55593388786295,25.18277752920199]},"properties":{"plant":"陽明淨水場-鹿角坑加壓站","county":"臺北市","source":"Environment Agency","address":"竹子湖路75-1號對面","township":"北投區","data_time":"2026-05-02T13:20:13.038157+08:00","item_count":31,"record_count":31,"measured_count":15}},
    {"type":"Feature","geometry":{"type":"Point","coordinates":[121.55593388786298,25.182777529201992]},"properties":{"plant":"陽明淨水場-鹿角坑第三加壓站","county":"臺北市","source":"Environment Agency","address":"竹子湖路75-1號對面","township":"北投區","data_time":"2026-05-02T13:20:13.038157+08:00","item_count":18,"record_count":18,"measured_count":8}},
    {"type":"Feature","geometry":{"type":"Point","coordinates":[121.55700459217498,25.109039202848987]},"properties":{"plant":"雙溪淨水場","county":"臺北市","source":"Environment Agency","address":"至善路三段110號；至善路二段449號","township":"士林區","data_time":"2026-05-02T13:20:13.038157+08:00","item_count":32,"record_count":32,"measured_count":14}}
  ]
}
