{
  "crs": {
    "type": "name",
    "properties": {
      "name": "urn:ogc:def:crs:OGC:1.3:CRS84"
    }
  },
  "name": "hackathon_component_9_er_overview",
  "type": "FeatureCollection",
  "features": [
    {"type":"Feature","geometry":{"type":"Point","coordinates":[121.5494,25.0381]},"properties":{"data_mode":"real","data_time":"2026-05-02T10:34:24.995614+08:00","city_scope":"Taipei","hospital_id":101020017,"source_trace":"健保署 NHI","waiting_time":1,"hospital_name":"聯醫仁愛","patient_count":1,"bed_utilization":0}},
    {"type":"Feature","geometry":{"type":"Point","coordinates":[121.505,25.0505]},"properties":{"data_mode":"real","data_time":"2026-05-02T10:34:24.995614+08:00","city_scope":"Taipei","hospital_id":101090517,"source_trace":"健保署 NHI","waiting_time":0,"hospital_name":"北市聯醫","patient_count":0,"bed_utilization":0}},
    {"type":"Feature","geometry":{"type":"Point","coordinates":[121.4623,25.0423]},"properties":{"data_mode":"real","data_time":"2026-05-02T10:34:24.995614+08:00","city_scope":"NewTaipei","hospital_id":131060029,"source_trace":"健保署 NHI","waiting_time":1,"hospital_name":"部立臺北","patient_count":1,"bed_utilization":3}},
    {"type":"Feature","geometry":{"type":"Point","coordinates":[121.5186,25.0416]},"properties":{"data_mode":"real","data_time":"2026-05-02T10:34:24.995614+08:00","city_scope":"Taipei","hospital_id":401180014,"source_trace":"健保署 NHI","waiting_time":73,"hospital_name":"臺大","patient_count":2,"bed_utilization":0}},
    {"type":"Feature","geometry":{"type":"Point","coordinates":[121.5175,25.0435]},"properties":{"data_mode":"real","data_time":"2026-05-02T10:34:24.995614+08:00","city_scope":"Taipei","hospital_id":401180023,"source_trace":"健保署 NHI","waiting_time":0,"hospital_name":"台大兒醫","patient_count":0,"bed_utilization":0}},
    {"type":"Feature","geometry":{"type":"Point","coordinates":[121.5936,25.0689]},"properties":{"data_mode":"real","data_time":"2026-05-02T10:34:24.995614+08:00","city_scope":"Taipei","hospital_id":501110514,"source_trace":"健保署 NHI","waiting_time":2,"hospital_name":"三總","patient_count":0,"bed_utilization":0}},
    {"type":"Feature","geometry":{"type":"Point","coordinates":[121.5211,25.1197]},"properties":{"data_mode":"real","data_time":"2026-05-02T10:34:24.995614+08:00","city_scope":"Taipei","hospital_id":601160016,"source_trace":"健保署 NHI","waiting_time":32,"hospital_name":"北榮","patient_count":2,"bed_utilization":0}},
    {"type":"Feature","geometry":{"type":"Point","coordinates":[121.5492,25.0375]},"properties":{"data_mode":"real","data_time":"2026-05-02T10:34:24.995614+08:00","city_scope":"Taipei","hospital_id":1101020018,"source_trace":"健保署 NHI","waiting_time":8,"hospital_name":"台北國泰","patient_count":1,"bed_utilization":0}},
    {"type":"Feature","geometry":{"type":"Point","coordinates":[121.5233,25.0594]},"properties":{"data_mode":"real","data_time":"2026-05-02T10:34:24.995614+08:00","city_scope":"Taipei","hospital_id":1101100011,"source_trace":"健保署 NHI","waiting_time":41,"hospital_name":"台北馬偕","patient_count":2,"bed_utilization":0}},
    {"type":"Feature","geometry":{"type":"Point","coordinates":[121.5228,25.0596]},"properties":{"data_mode":"real","data_time":"2026-05-02T10:34:24.995614+08:00","city_scope":"Taipei","hospital_id":1101100020,"source_trace":"健保署 NHI","waiting_time":0,"hospital_name":"馬偕兒醫","patient_count":0,"bed_utilization":0}},
    {"type":"Feature","geometry":{"type":"Point","coordinates":[121.5204,25.0934]},"properties":{"data_mode":"real","data_time":"2026-05-02T10:34:24.995614+08:00","city_scope":"Taipei","hospital_id":1101150011,"source_trace":"健保署 NHI","waiting_time":4,"hospital_name":"新光","patient_count":0,"bed_utilization":0}},
    {"type":"Feature","geometry":{"type":"Point","coordinates":[121.5213,25.1158]},"properties":{"data_mode":"real","data_time":"2026-05-02T10:34:24.995614+08:00","city_scope":"Taipei","hospital_id":1101160017,"source_trace":"健保署 NHI","waiting_time":5,"hospital_name":"振興","patient_count":1,"bed_utilization":0}},
    {"type":"Feature","geometry":{"type":"Point","coordinates":[121.4526,24.9967]},"properties":{"data_mode":"real","data_time":"2026-05-02T10:34:24.995614+08:00","city_scope":"NewTaipei","hospital_id":1131010011,"source_trace":"健保署 NHI","waiting_time":13,"hospital_name":"亞東","patient_count":4,"bed_utilization":12}},
    {"type":"Feature","geometry":{"type":"Point","coordinates":[121.5374,24.9858]},"properties":{"data_mode":"real","data_time":"2026-05-02T10:34:24.995614+08:00","city_scope":"NewTaipei","hospital_id":1131050515,"source_trace":"健保署 NHI","waiting_time":10,"hospital_name":"台北慈濟","patient_count":2,"bed_utilization":0}},
    {"type":"Feature","geometry":{"type":"Point","coordinates":[121.4611,25.1376]},"properties":{"data_mode":"real","data_time":"2026-05-02T10:34:24.995614+08:00","city_scope":"NewTaipei","hospital_id":1131100010,"source_trace":"健保署 NHI","waiting_time":14,"hospital_name":"淡水馬偕","patient_count":3,"bed_utilization":0}},
    {"type":"Feature","geometry":{"type":"Point","coordinates":[121.4426,24.9823]},"properties":{"data_mode":"real","data_time":"2026-05-02T10:34:24.995614+08:00","city_scope":"NewTaipei","hospital_id":1131130018,"source_trace":"健保署 NHI","waiting_time":34,"hospital_name":"土城醫院","patient_count":3,"bed_utilization":0}},
    {"type":"Feature","geometry":{"type":"Point","coordinates":[121.5323,24.9748]},"properties":{"data_mode":"real","data_time":"2026-05-02T10:34:24.995614+08:00","city_scope":"NewTaipei","hospital_id":1231050017,"source_trace":"健保署 NHI","waiting_time":6,"hospital_name":"耕莘","patient_count":8,"bed_utilization":0}},
    {"type":"Feature","geometry":{"type":"Point","coordinates":[121.5613,25.0261]},"properties":{"data_mode":"real","data_time":"2026-05-02T10:34:24.995614+08:00","city_scope":"Taipei","hospital_id":1301170017,"source_trace":"健保署 NHI","waiting_time":4,"hospital_name":"北醫","patient_count":2,"bed_utilization":0}},
    {"type":"Feature","geometry":{"type":"Point","coordinates":[121.5582,24.9995]},"properties":{"data_mode":"real","data_time":"2026-05-02T10:34:24.995614+08:00","city_scope":"Taipei","hospital_id":1301200010,"source_trace":"健保署 NHI","waiting_time":15,"hospital_name":"萬芳","patient_count":3,"bed_utilization":0}},
    {"type":"Feature","geometry":{"type":"Point","coordinates":[121.4924,24.9936]},"properties":{"data_mode":"real","data_time":"2026-05-02T10:34:24.995614+08:00","city_scope":"NewTaipei","hospital_id":1331040513,"source_trace":"健保署 NHI","waiting_time":5,"hospital_name":"部立雙和","patient_count":1,"bed_utilization":0}},
    {"type":"Feature","geometry":{"type":"Point","coordinates":[121.4334,25.0366]},"properties":{"data_mode":"real","data_time":"2026-05-02T10:34:24.995614+08:00","city_scope":"NewTaipei","hospital_id":1331160010,"source_trace":"健保署 NHI","waiting_time":20,"hospital_name":"輔大","patient_count":2,"bed_utilization":0}}
  ]
}
